UFO 10 (USA 146)        
1 25967U 99063A   26061.72621458 -.00000199  00000+0  00000+0 0  9994
2 25967   9.8459  27.7994 0005315 294.1021  77.1937  1.00274051 96286
ASIASTAR                
1 26107U 00016A   26061.96548987 -.00000345  00000+0  00000+0 0  9995
2 26107   8.8836  59.2783 0004529 289.3593 264.6872  1.00272061 94854
USA 149 (DSP 20)        
1 26356U 00024A   26062.05449697  .00000085  00000+0  00000+0 0  9999
2 26356  13.0908  12.5975 0002179   1.9670   0.4931  1.00275437 31859
TDRS 8                  
1 26388U 00034A   26061.89022469 -.00000206  00000+0  00000+0 0  9996
2 26388  12.5164  32.2081 0006157 307.0903 226.5804  1.00276790 94119
NSS-11                  
1 26554U 00059A   26062.12189343  .00000010  00000+0  00000+0 0  9992
2 26554   1.8527  82.6883 0003163 262.4144  35.6562  1.00271535 40227
USA 153                 
1 26575U 00065A   26061.83377823 -.00000336  00000+0  00000+0 0  9993
2 26575  11.4425  36.2848 0002511 343.3755 215.5140  1.00270033 31866
AMC-6                   
1 26580U 00067A   26062.15392248  .00000073  00000+0  00000+0 0  9992
2 26580   0.0510 312.3900 0003149  26.0566 102.8133  1.00271314 92827
USA 157 (MILSTAR-2 2)   
1 26715U 01009A   26062.05753031  .00000099  00000+0  00000+0 0  9997
2 26715  11.4263  20.4105 0038177 183.5184 187.6420  1.00278973 31883
INTELSAT 10 (IS-10)     
1 26766U 01019A   26061.82822588 -.00000297  00000+0  00000+0 0  9993
2 26766   8.8221  60.3368 0006023 264.4557 284.1492  0.99042112 44523
USA 159 (DSP 21)        
1 26880U 01033A   26061.45970787 -.00000308  00000+0  00000+0 0  9993
2 26880  12.6874  17.1829 0002281 242.9429  16.5978  1.00279769 31895
INTELSAT 902 (IS-902)   
1 26900U 01039A   26062.03863721 -.00000296  00000+0  00000+0 0  9992
2 26900   5.8488  73.0785 0004598 274.7996 136.7372  1.00270738 89635
USA 164 (MILSTAR-2 3)   
1 27168U 02001A   26062.05225326  .00000087  00000+0  00000+0 0  9991
2 27168  11.0537  22.5393 0099354   4.6198 171.4193  1.00268825 31894
INTELSAT 904 (IS-904)   
1 27380U 02007A   26061.46017110 -.00000240  00000+0  00000+0 0  9999
2 27380   6.6541  70.4635 0006068 306.2018 277.7210  1.00270508 50698
DIRECTV 5 (TEMPO 1)     
1 27426U 02023A   26062.13680015 -.00000071  00000+0  00000+0 0  9995
2 27426   4.6072  76.6364 0003594 271.5285 111.8780  1.00272043 87061
INTELSAT 905 (IS-905)   
1 27438U 02027A   26062.13125346  .00000081  00000+0  00000+0 0  9993
2 27438   6.4875  71.0761 0003158 273.9975  85.8722  1.00272909 50295
GALAXY 3C (G-3C)        
1 27445U 02030A   26062.12649284 -.00000167  00000+0  00000+0 0  9992
2 27445   3.4613  79.4778 0000911  31.0944   1.0163  1.00271556 45439
INTELSAT 906 (IS-906)   
1 27513U 02041A   26062.09975346  .00000000  00000+0  00000+0 0  9992
2 27513   5.5328  74.2286 0003256 255.7490 290.9506  1.00272667 85960
